[{"OBJECT_NAME":"AAC-AIS-SAT3","OBJECT_ID":"2023-174DJ","EPOCH":"2026-03-09T21:54:37.399104","MEAN_MOTION":14.84090722,"ECCENTRICITY":0.00050238,"INCLINATION":97.6364,"RA_OF_ASC_NODE":121.8384,"ARG_OF_PERICENTER":288.7792,"MEAN_ANOMALY":71.2877,"EPHEMERIS_TYPE":0,"CLASSIFICATION_TYPE":"U","NORAD_CAT_ID":58997,"ELEMENT_SET_NO":999,"REV_AT_EPOCH":12642,"BSTAR":0.00054806577,"MEAN_MOTION_DOT":4.524e-5,"MEAN_MOTION_DDOT":0},{"OBJECT_NAME":"KUIPER-00034","OBJECT_ID":"2025-088Z","EPOCH":"2026-03-09T10:36:30.497760","MEAN_MOTION":14.83548331,"ECCENTRICITY":0.00019117,"INCLINATION":51.9015,"RA_OF_ASC_NODE":89.2936,"ARG_OF_PERICENTER":350.8719,"MEAN_ANOMALY":9.221,"EPHEMERIS_TYPE":0,"CLASSIFICATION_TYPE":"U","NORAD_CAT_ID":63747,"ELEMENT_SET_NO":999,"REV_AT_EPOCH":4778,"BSTAR":0.00058284941,"MEAN_MOTION_DOT":4.621e-5,"MEAN_MOTION_DDOT":0}]
